{
  "norad_id": 66926,
  "name": "STARLINK-35942",
  "history": [
    {
      "epoch": "2026-03-28T20:38:54.138048",
      "apogee_km": 475.9026204101074,
      "perigee_km": 474.5264674200889,
      "latitude_deg": 23.68085732390472,
      "longitude_deg": -124.80651327990927,
      "semi_major_axis_km": 6853.351543915098,
      "eccentricity": 0.0001004,
      "inclination_deg": 53.1572,
      "raan_deg": 269.2811,
      "arg_perigee_deg": 66.3817,
      "mean_anomaly_deg": 293.7289,
      "mean_motion_rev_day": 15.30200176
    }
  ]
}